HULIANWANG DIGUI 14J    
1 66923U 25285J   25341.93723132 -.00000153  00000+0 -47305-6 0  9998
2 66923  50.0075 136.8754 0005387 280.8946  79.1354 14.06515715   238
CZ-8A R/B               
1 66924U 25285K   25340.51378515 -.00000095  00000+0  25730-4 0  9993
2 66924  50.0062 142.6566 0118852  84.4915 276.9544 14.30448863    39
