CCSDS_OMM_VERS = 2.0
CREATION_DATE  = 
ORIGINATOR     = 

OBJECT_NAME    = HULIANWANG DIGUI 14J
OBJECT_ID      = 2025-285J
CENTER_NAME    = EARTH
REF_FRAME      = TEME
TIME_SYSTEM    = UTC
MEAN_ELEMENT_THEORY = SGP/SGP4

EPOCH          = 2025-12-07T22:29:36.786048
MEAN_MOTION    = 14.06515715
ECCENTRICITY   = .00053876
INCLINATION    = 50.0075
RA_OF_ASC_NODE = 136.8754
ARG_OF_PERICENTER = 280.8946
MEAN_ANOMALY   = 79.1354

EPHEMERIS_TYPE = 0
CLASSIFICATION_TYPE = U
NORAD_CAT_ID   = 66923
ELEMENT_SET_NO = 999
REV_AT_EPOCH   = 23
BSTAR          = -.47305E-6
MEAN_MOTION_DOT = -.153E-5
MEAN_MOTION_DDOT = 0

CCSDS_OMM_VERS = 2.0
CREATION_DATE  = 
ORIGINATOR     = 

OBJECT_NAME    = CZ-8A R/B
OBJECT_ID      = 2025-285K
CENTER_NAME    = EARTH
REF_FRAME      = TEME
TIME_SYSTEM    = UTC
MEAN_ELEMENT_THEORY = SGP/SGP4

EPOCH          = 2025-12-06T12:19:51.036960
MEAN_MOTION    = 14.30448863
ECCENTRICITY   = .0118852
INCLINATION    = 50.0062
RA_OF_ASC_NODE = 142.6566
ARG_OF_PERICENTER = 84.4915
MEAN_ANOMALY   = 276.9544

EPHEMERIS_TYPE = 0
CLASSIFICATION_TYPE = U
NORAD_CAT_ID   = 66924
ELEMENT_SET_NO = 999
REV_AT_EPOCH   = 3
BSTAR          = .2573E-4
MEAN_MOTION_DOT = -.95E-6
MEAN_MOTION_DDOT = 0

